NORAD_CAT_ID,OBJECT_NAME,OBJECT_TYPE,EPOCH,MEAN_MOTION,ECCENTRICITY,INCLINATION,RA_OF_ASC_NODE,ARG_OF_PERICENTER,MEAN_ANOMALY,BSTAR,MEAN_MOTION_DOT,MEAN_MOTION_DDOT,TLE_LINE0,TLE_LINE1,TLE_LINE2,SEMIMAJOR_AXIS,PERIOD,APOGEE,PERIGEE,DECAYED
54157.0,STARLINK-5290,PAYLOAD,2023-09-07 00:40:26,15.08849253,0.0001639,53.2176,160.2457,102.2128,257.9048,1.0025e-06,-2.72e-06,0.0,0 STARLINK-5290,1 54157U 22141A   23250.02807878 -.00000272  00000-0  10025-5 0  9999,2 54157  53.2176 160.2457 0001639 102.2128 257.9048 15.08849253 47638,6917.852,95.437,540.851,538.583,0.0
54157.0,STARLINK-5290,PAYLOAD,2023-09-07 18:09:40,15.08865457,7.28e-05,53.2138,156.9755,84.5261,275.5814,-0.00031509,-5.302e-05,0.0,0 STARLINK-5290,1 54157U 22141A   23250.75672439 -.00005302  00000-0 -31509-3 0  9990,2 54157  53.2138 156.9755 0000728  84.5261 275.5814 15.08865457 47740,6917.803,95.436,540.171,539.164,0.0
54157.0,STARLINK-5290,PAYLOAD,2023-09-08 00:31:13,15.08857067,0.0001058,53.2159,155.7879,83.7931,276.3182,-0.00017918,-3.14e-05,0.0,0 STARLINK-5290,1 54157U 22141A   23251.02168078 -.00003140  00000-0 -17918-3 0  9996,2 54157  53.2159 155.7879 0001058  83.7931 276.3182 15.08857067 47788,6917.828,95.436,540.425,538.961,0.0
54157.0,STARLINK-5290,PAYLOAD,2023-09-08 18:00:28,15.08833727,0.0001284,53.2162,152.517,88.6159,271.498,1.5821e-05,-3.6e-07,0.0,0 STARLINK-5290,1 54157U 22141A   23251.75032857 -.00000036  00000-0  15821-4 0  9993,2 54157  53.2162 152.5170 0001284  88.6159 271.4980 15.08833727 47899,6917.9,95.438,540.653,538.876,0.0
54157.0,STARLINK-5290,PAYLOAD,2023-09-09 09:54:20,15.08831545,0.00011,53.2163,149.5436,82.9838,277.1279,-4.7017e-05,-1.036e-05,0.0,0 STARLINK-5290,1 54157U 22141A   23252.41273389 -.00001036  00000-0 -47017-4 0  9998,2 54157  53.2163 149.5436 0001100  82.9838 277.1279 15.08831545 47990,6917.906,95.438,540.532,539.01,0.0
54157.0,STARLINK-5290,PAYLOAD,2023-09-09 17:51:16,15.08828762,0.0001348,53.2182,148.0596,98.719,261.3955,-0.00012688,-2.306e-05,0.0,0 STARLINK-5290,1 54157U 22141A   23252.74394265 -.00002306  00000-0 -12688-3 0  9997,2 54157  53.2182 148.0596 0001348  98.7190 261.3955 15.08828762 48042,6917.915,95.438,540.712,538.847,0.0
54157.0,STARLINK-5290,PAYLOAD,2023-09-10 01:48:12,15.08827367,0.0001443,53.2188,146.5733,98.7073,261.4083,-1.2481e-05,-4.86e-06,0.0,0 STARLINK-5290,1 54157U 22141A   23253.07514248 -.00000486  00000-0 -12481-4 0  9998,2 54157  53.2188 146.5733 0001443  98.7073 261.4083 15.08827367 48098,6917.919,95.438,540.782,538.786,0.0
54157.0,STARLINK-5290,PAYLOAD,2023-09-11 01:38:57,15.08851637,0.0001325,53.2183,142.1118,93.7233,266.391,0.00017969,2.574e-05,0.0,0 STARLINK-5290,1 54157U 22141A   23254.06872388  .00002574  00000-0  17969-3 0  9993,2 54157  53.2183 142.1118 0001325  93.7233 266.3910 15.08851637 48241,6917.845,95.437,540.626,538.793,0.0
54157.0,STARLINK-5290,PAYLOAD,2023-09-11 09:35:54,15.08845021,0.0001432,53.2167,140.62,79.7566,280.3588,5.4611e-05,5.81e-06,0.0,0 STARLINK-5290,1 54157U 22141A   23254.39993104  .00000581  00000-0  54611-4 0  9991,2 54157  53.2167 140.6200 0001432  79.7566 280.3588 15.08845021 48292,6917.865,95.437,540.721,538.739,0.0
54157.0,STARLINK-5290,PAYLOAD,2023-09-12 01:29:45,15.08840397,0.0001522,53.2177,137.6465,73.8861,286.2299,0.00015216,2.134e-05,0.0,0 STARLINK-5290,1 54157U 22141A   23255.06233432  .00002134  00000-0  15216-3 0  9990,2 54157  53.2177 137.6465 0001522  73.8861 286.2299 15.08840397 48391,6917.879,95.438,540.797,538.691,0.0
54157.0,STARLINK-5290,PAYLOAD,2023-09-12 20:34:23,15.08848453,0.0001266,53.2169,134.0804,89.6352,270.4786,-5.2742e-05,-1.127e-05,0.0,0 STARLINK-5290,1 54157U 22141A   23255.85721360 -.00001127  00000-0 -52742-4 0  9998,2 54157  53.2169 134.0804 0001266  89.6352 270.4786 15.08848453 48516,6917.855,95.437,540.595,538.844,0.0
54157.0,STARLINK-5290,PAYLOAD,2023-09-12 23:45:09,15.08853045,0.0001219,53.2168,133.4861,92.42,267.6932,-1.6515e-05,-5.51e-06,0.0,0 STARLINK-5290,1 54157U 22141A   23255.98968884 -.00000551  00000-0 -16515-4 0  9994,2 54157  53.2168 133.4861 0001219  92.4200 267.6932 15.08853045 48539,6917.841,95.437,540.549,538.862,0.0
54157.0,STARLINK-5290,PAYLOAD,2023-09-13 22:00:32,15.08850035,0.0001458,53.2176,129.3239,76.882,283.2334,0.0001084,1.438e-05,0.0,0 STARLINK-5290,1 54157U 22141A   23256.91704267  .00001438  00000-0  10840-3 0  9998,2 54157  53.2176 129.3239 0001458  76.8820 283.2334 15.08850035 48671,6917.85,95.437,540.723,538.706,0.0
54157.0,STARLINK-5290,PAYLOAD,2023-09-14 01:11:18,15.08849039,0.0001457,53.2176,128.7295,76.7814,283.3341,9.2165e-05,1.179e-05,0.0,0 STARLINK-5290,1 54157U 22141A   23257.04952277  .00001179  00000-0  92165-4 0  9992,2 54157  53.2176 128.7295 0001457  76.7814 283.3341 15.08849039 48690,6917.853,95.437,540.726,538.71,0.0
54157.0,STARLINK-5290,PAYLOAD,2023-09-14 18:40:34,15.08831695,0.00015,53.2169,125.459,70.1241,289.9912,-4.1284e-05,-9.45e-06,0.0,0 STARLINK-5290,1 54157U 22141A   23257.77817912 -.00000945  00000-0 -41284-4 0  9996,2 54157  53.2169 125.4590 0001500  70.1241 289.9912 15.08831695 48803,6917.906,95.438,540.808,538.733,0.0
54157.0,STARLINK-5290,PAYLOAD,2023-09-14 21:51:20,15.08836494,0.0001419,53.2171,124.8632,81.7974,278.3179,-6.4687e-05,-1.317e-05,0.0,0 STARLINK-5290,1 54157U 22141A   23257.91065650 -.00001317  00000-0 -64687-4 0  9992,2 54157  53.2171 124.8632 0001419  81.7974 278.3179 15.08836494 48827,6917.891,95.438,540.738,538.774,0.0
54157.0,STARLINK-5290,PAYLOAD,2023-09-15 01:02:06,15.08837499,0.0001409,53.2171,124.2678,82.3367,277.7786,-5.8175e-05,-1.214e-05,0.0,0 STARLINK-5290,1 54157U 22141A   23258.04313579 -.00001214  00000-0 -58175-4 0  9994,2 54157  53.2171 124.2678 0001409  82.3367 277.7786 15.08837499 48848,6917.888,95.438,540.728,538.778,0.0
54157.0,STARLINK-5290,PAYLOAD,2023-09-15 18:31:20,15.0883846,0.000148,53.2173,120.997,80.821,279.2949,6.6093e-05,7.64e-06,0.0,0 STARLINK-5290,1 54157U 22141A   23258.77176954  .00000764  00000-0  66093-4 0  9993,2 54157  53.2173 120.9970 0001480  80.8210 279.2949 15.08838460 48956,6917.885,95.438,540.774,538.726,0.0
54157.0,STARLINK-5290,PAYLOAD,2023-09-16 00:52:53,15.08842903,0.0001517,53.2175,119.8066,83.9492,276.1673,0.00010957,1.456e-05,0.0,0 STARLINK-5290,1 54157U 22141A   23259.03672546  .00001456  00000-0  10957-3 0  9997,2 54157  53.2175 119.8066 0001517  83.9492 276.1673 15.08842903 48999,6917.872,95.437,540.786,538.687,0.0
54157.0,STARLINK-5290,PAYLOAD,2023-09-16 18:22:08,15.08834644,0.0001529,53.2171,116.5323,106.4508,253.6652,3.853e-05,3.25e-06,0.0,0 STARLINK-5290,1 54157U 22141A   23259.76537464  .00000325  00000-0  38530-4 0  9998,2 54157  53.2171 116.5323 0001529 106.4508 253.6652 15.08834644 49101,6917.897,95.438,540.82,538.704,0.0
54157.0,STARLINK-5290,PAYLOAD,2023-09-17 00:43:40,15.0883754,0.0001345,53.2173,115.3462,85.0308,275.0837,8.5465e-05,1.072e-05,0.0,0 STARLINK-5290,1 54157U 22141A   23260.03033337  .00001072  00000-0  85465-4 0  9999,2 54157  53.2173 115.3462 0001345  85.0308 275.0837 15.08837540 49145,6917.888,95.438,540.683,538.822,0.0
54157.0,STARLINK-5290,PAYLOAD,2023-09-17 21:23:41,15.08843494,0.0001298,53.2173,111.482,97.6544,262.4596,-1.374e-05,-5.07e-06,0.0,0 STARLINK-5290,1 54157U 22141A   23260.89145316 -.00000507  00000-0 -13740-4 0  9995,2 54157  53.2173 111.4820 0001298  97.6544 262.4596 15.08843494 49279,6917.87,95.437,540.633,538.837,0.0
54157.0,STARLINK-5290,PAYLOAD,2023-09-18 18:03:42,15.08836601,0.0001272,53.2173,107.6171,95.8855,264.2282,3.579e-05,2.82e-06,0.0,0 STARLINK-5290,1 54157U 22141A   23261.75257873  .00000282  00000-0  35790-4 0  9990,2 54157  53.2173 107.6171 0001272  95.8855 264.2282 15.08836601 49401,6917.891,95.438,540.636,538.876,0.0
54157.0,STARLINK-5290,PAYLOAD,2023-09-18 21:14:28,15.08839994,0.0001223,53.2171,107.022,89.5095,270.6037,6.249e-05,7.07e-06,0.0,0 STARLINK-5290,1 54157U 22141A   23261.88505645  .00000707  00000-0  62490-4 0  9996,2 54157  53.2171 107.0220 0001223  89.5095 270.6037 15.08839994 49429,6917.88,95.438,540.591,538.899,0.0
54157.0,STARLINK-5290,PAYLOAD,2023-09-19 00:25:14,15.08845696,0.0001244,53.2173,106.4276,93.0945,267.0189,0.00010915,1.45e-05,0.0,0 STARLINK-5290,1 54157U 22141A   23262.01753150  .00001450  00000-0  10915-3 0  9998,2 54157  53.2173 106.4276 0001244  93.0945 267.0189 15.08845696 49448,6917.863,95.437,540.589,538.867,0.0
54157.0,STARLINK-5290,PAYLOAD,2023-09-20 01:51:23,15.08856648,0.0001271,53.2172,101.6689,84.5028,275.6109,0.0001903,2.743e-05,0.0,0 STARLINK-5290,1 54157U 22141A   23263.07735965  .00002743  00000-0  19030-3 0  9992,2 54157  53.2172 101.6689 0001271  84.5028 275.6109 15.08856648 49603,6917.83,95.437,540.574,538.815,0.0
54157.0,STARLINK-5290,PAYLOAD,2023-09-20 19:20:41,15.08822593,0.0001329,53.2181,98.3982,85.2075,274.9069,-0.00012808,-2.325e-05,0.0,0 STARLINK-5290,1 54157U 22141A   23263.80603642 -.00002325  00000-0 -12808-3 0  9993,2 54157  53.2181  98.3982 0001329  85.2075 274.9069 15.08822593 49716,6917.934,95.439,540.718,538.879,0.0
54157.0,STARLINK-5290,PAYLOAD,2023-09-21 12:49:56,15.08827906,0.0001416,53.2173,95.1266,85.7319,274.3835,-2.9934e-05,-7.64e-06,0.0,0 STARLINK-5290,1 54157U 22141A   23264.53467685 -.00000764  00000-0 -29934-4 0  9993,2 54157  53.2173  95.1266 0001416  85.7319 274.3835 15.08827906 49820,6917.917,95.438,540.762,538.803,0.0
54157.0,STARLINK-5290,PAYLOAD,2023-09-21 17:36:05,15.08837874,0.0001357,53.2173,94.2341,90.1294,269.9854,-5.5534e-05,-1.172e-05,0.0,0 STARLINK-5290,1 54157U 22141A   23264.73339228 -.00001172  00000-0 -55534-4 0  9995,2 54157  53.2173  94.2341 0001357  90.1294 269.9854 15.08837874 49859,6917.887,95.438,540.691,538.813,0.0
54157.0,STARLINK-5290,PAYLOAD,2023-09-21 19:11:28,15.088393,0.0001361,53.2173,93.9365,91.6703,268.4445,-3.5807e-05,-8.58e-06,0.0,0 STARLINK-5290,1 54157U 22141A   23264.79963134 -.00000858  00000-0 -35807-4 0  9991,2 54157  53.2173  93.9365 0001361  91.6703 268.4445 15.08839300 49864,6917.883,95.438,540.689,538.806,0.0
